OBJECT_NAME,OBJECT_ID,EPOCH,MEAN_MOTION,ECCENTRICITY,INCLINATION,RA_OF_ASC_NODE,ARG_OF_PERICENTER,MEAN_ANOMALY,EPHEMERIS_TYPE,CLASSIFICATION_TYPE,NORAD_CAT_ID,ELEMENT_SET_NO,REV_AT_EPOCH,BSTAR,MEAN_MOTION_DOT,MEAN_MOTION_DDOT
IRIDIUM 156,2018-061H,2026-06-25T16:46:30.971712,14.34218362,.000201,86.3954,53.1700,85.2285,274.9140,0,U,43576,999,41459,.70657E-4,.218E-5,0
IRIDIUM 164,2018-061J,2026-06-25T17:59:34.481760,14.34218033,.000223,86.3956,53.1893,90.3493,269.7958,0,U,43577,999,41464,.24717E-4,.89E-6,0
IRIDIUM 159,2018-061K,2026-06-25T17:13:54.494976,14.34217418,.0002109,86.3948,53.1390,83.6748,276.4687,0,U,43578,999,41460,-.72877E-5,-.1E-7,0
IRIDIUM 180,2019-002A,2026-06-25T20:34:06.946176,14.34217346,.0002144,86.3971,349.9725,89.3337,270.8105,0,U,43922,999,39023,-.69095E-5,0,0
IRIDIUM 176,2019-002B,2026-06-25T20:36:38.743200,14.72224766,.0002424,86.6094,349.9140,88.3241,271.8254,0,U,43923,999,40052,.11195E-3,.73E-5,0
IRIDIUM 168,2019-002C,2026-06-25T20:24:58.428864,14.34216863,.0002242,86.3975,350.0525,90.5415,269.6038,0,U,43924,999,39021,.48358E-4,.155E-5,0
IRIDIUM 173,2019-002D,2026-06-25T13:24:50.962752,14.34217788,.0002167,86.3972,350.0631,88.4637,271.6807,0,U,43925,999,39015,.12404E-4,.55E-6,0
IRIDIUM 169,2019-002E,2026-06-25T14:22:27.780096,14.38607382,.0001712,86.4220,21.6759,81.7751,278.3641,0,U,43926,999,39143,.11814E-3,.381E-5,0
IRIDIUM 172,2019-002F,2026-06-25T13:15:42.753888,14.34216950,.0002143,86.3968,350.0735,89.9049,270.2392,0,U,43927,999,39016,-.13226E-5,.16E-6,0
IRIDIUM 175,2019-002G,2026-06-25T19:14:15.101088,14.43617140,.0003606,86.4516,286.9198,156.1516,203.9853,0,U,43928,999,40022,.80753E-4,.294E-5,0
IRIDIUM 171,2019-002H,2026-06-25T12:48:18.904032,14.34217490,.0001958,86.3978,350.3888,93.3417,266.8003,0,U,43929,999,39015,-.69894E-5,0,0
IRIDIUM 170,2019-002J,2026-06-25T12:36:09.851328,14.72225348,.0002547,86.6091,350.0557,86.2765,273.8743,0,U,43930,999,40048,.13393E-3,.869E-5,0
IRIDIUM 167,2019-002K,2026-06-25T12:39:10.869696,14.34217619,.0001882,86.3968,350.1067,96.7991,263.3419,0,U,43931,999,39015,-.3773E-5,.9E-7,0
IRIDIUM 181,2023-068S,2026-06-25T18:32:35.404800,14.43310434,.0002411,86.4492,53.2014,87.8607,272.2870,0,U,56726,999,16367,.71015E-4,.259E-5,0
IRIDIUM 177,2023-068T,2026-06-25T20:10:09.181056,14.80226216,.0002321,86.1973,324.6812,89.1289,271.0198,0,U,56727,999,16764,.79737E-4,.632E-5,0
IRIDIUM 174,2023-068U,2026-06-25T20:27:46.647072,14.72233140,.0002439,86.6100,350.0669,80.6391,279.5102,0,U,56728,999,16729,.13065E-3,.848E-5,0
IRIDIUM 178,2023-068V,2026-06-25T11:47:42.753984,14.80247119,.0002557,86.6533,21.8888,84.2279,275.9234,0,U,56729,999,16759,.1235E-3,.965E-5,0
IRIDIUM 179,2023-068W,2026-06-25T14:54:41.381856,14.80228160,.0002398,86.6770,30.8397,89.1337,271.0160,0,U,56730,999,16761,.50246E-4,.408E-5,0
