IRIDIUM 156             
1 43576U 18061H   26176.69896958  .00000218  00000+0  70657-4 0  9992
2 43576  86.3954  53.1700 0002010  85.2285 274.9140 14.34218362414595
IRIDIUM 164             
1 43577U 18061J   26176.74970465  .00000089  00000+0  24717-4 0  9997
2 43577  86.3956  53.1893 0002230  90.3493 269.7958 14.34218033414643
IRIDIUM 159             
1 43578U 18061K   26176.71799184 -.00000001  00000+0 -72877-5 0  9999
2 43578  86.3948  53.1390 0002109  83.6748 276.4687 14.34217418414606
IRIDIUM 180             
1 43922U 19002A   26176.85702484  .00000000  00000+0 -69095-5 0  9996
2 43922  86.3971 349.9725 0002144  89.3337 270.8105 14.34217346390234
IRIDIUM 176             
1 43923U 19002B   26176.85878175  .00000730  00000+0  11195-3 0  9993
2 43923  86.6094 349.9140 0002424  88.3241 271.8254 14.72224766400525
IRIDIUM 168             
1 43924U 19002C   26176.85067626  .00000155  00000+0  48358-4 0  9998
2 43924  86.3975 350.0525 0002242  90.5415 269.6038 14.34216863390213
IRIDIUM 173             
1 43925U 19002D   26176.55892318  .00000055  00000+0  12404-4 0  9992
2 43925  86.3972 350.0631 0002167  88.4637 271.6807 14.34217788390154
IRIDIUM 169             
1 43926U 19002E   26176.59893264  .00000381  00000+0  11814-3 0  9993
2 43926  86.4220  21.6759 0001712  81.7751 278.3641 14.38607382391431
IRIDIUM 172             
1 43927U 19002F   26176.55257817  .00000016  00000+0 -13226-5 0  9995
2 43927  86.3968 350.0735 0002143  89.9049 270.2392 14.34216950390168
IRIDIUM 175             
1 43928U 19002G   26176.80156367  .00000294  00000+0  80753-4 0  9997
2 43928  86.4516 286.9198 0003606 156.1516 203.9853 14.43617140400220
IRIDIUM 171             
1 43929U 19002H   26176.53355213  .00000000  00000+0 -69894-5 0  9999
2 43929  86.3978 350.3888 0001958  93.3417 266.8003 14.34217490390153
IRIDIUM 170             
1 43930U 19002J   26176.52511402  .00000869  00000+0  13393-3 0  9997
2 43930  86.6091 350.0557 0002547  86.2765 273.8743 14.72225348400486
IRIDIUM 167             
1 43931U 19002K   26176.52720914  .00000009  00000+0 -37730-5 0  9998
2 43931  86.3968 350.1067 0001882  96.7991 263.3419 14.34217619390158
IRIDIUM 181             
1 56726U 23068S   26176.77263200  .00000259  00000+0  71015-4 0  9997
2 56726  86.4492  53.2014 0002411  87.8607 272.2870 14.43310434163678
IRIDIUM 177             
1 56727U 23068T   26176.84038404  .00000632  00000+0  79737-4 0  9996
2 56727  86.1973 324.6812 0002321  89.1289 271.0198 14.80226216167648
IRIDIUM 174             
1 56728U 23068U   26176.85262323  .00000848  00000+0  13065-3 0  9997
2 56728  86.6100 350.0669 0002439  80.6391 279.5102 14.72233140167293
IRIDIUM 178             
1 56729U 23068V   26176.49146706  .00000965  00000+0  12350-3 0  9990
2 56729  86.6533  21.8888 0002557  84.2279 275.9234 14.80247119167595
IRIDIUM 179             
1 56730U 23068W   26176.62131229  .00000408  00000+0  50246-4 0  9990
2 56730  86.6770  30.8397 0002398  89.1337 271.0160 14.80228160167610
